{
    "links": {
        "self": "http://www.neowsapp.com/rest/v1/neo/3763270?api_key=iIulBulltgU6a56xZRHN4H3l9WmuAYTsLGpBGhQ2"
    },
    "id": "3763270",
    "neo_reference_id": "3763270",
    "name": "(2016 VQ)",
    "designation": "2016 VQ",
    "nasa_jpl_url": "http://ssd.jpl.nasa.gov/sbdb.cgi?sstr=3763270",
    "absolute_magnitude_h": 26.0,
    "estimated_diameter": {
        "kilometers": {
            "estimated_diameter_min": 0.0167708462,
            "estimated_diameter_max": 0.0375007522
        },
        "meters": {
            "estimated_diameter_min": 16.7708462163,
            "estimated_diameter_max": 37.5007521798
        },
        "miles": {
            "estimated_diameter_min": 0.0104209175,
            "estimated_diameter_max": 0.0233018799
        },
        "feet": {
            "estimated_diameter_min": 55.0224631002,
            "estimated_diameter_max": 123.0339677816
        }
    },
    "is_potentially_hazardous_asteroid": false,
    "close_approach_data": [
        {
            "close_approach_date": "1949-11-09",
            "close_approach_date_full": "1949-Nov-09 02:55",
            "epoch_date_close_approach": -635720700000,
            "relative_velocity": {
                "kilometers_per_second": "15.2146806527",
                "kilometers_per_hour": "54772.8503497384",
                "miles_per_hour": "34033.719152036"
            },
            "miss_distance": {
                "astronomical": "0.1339981087",
                "lunar": "52.1252642843",
                "kilometers": "20045831.645548469",
                "miles": "12455902.1966841122"
            },
            "orbiting_body": "Earth"
        },
        {
            "close_approach_date": "2016-11-11",
            "close_approach_date_full": "2016-Nov-11 02:13",
            "epoch_date_close_approach": 1478830380000,
            "relative_velocity": {
                "kilometers_per_second": "13.8320273875",
                "kilometers_per_hour": "49795.2985949968",
                "miles_per_hour": "30940.8620630967"
            },
            "miss_distance": {
                "astronomical": "0.0055914113",
                "lunar": "2.1750589957",
                "kilometers": "836463.220773931",
                "miles": "519754.1440690078"
            },
            "orbiting_body": "Moon"
        },
        {
            "close_approach_date": "2016-11-11",
            "close_approach_date_full": "2016-Nov-11 10:21",
            "epoch_date_close_approach": 1478859660000,
            "relative_velocity": {
                "kilometers_per_second": "13.4465494136",
                "kilometers_per_hour": "48407.5778890838",
                "miles_per_hour": "30078.5863833588"
            },
            "miss_distance": {
                "astronomical": "0.0064932866",
                "lunar": "2.5258884874",
                "kilometers": "971381.844659542",
                "miles": "603588.6894919996"
            },
            "orbiting_body": "Earth"
        },
        {
            "close_approach_date": "2142-02-26",
            "close_approach_date_full": "2142-Feb-26 17:58",
            "epoch_date_close_approach": 5432723880000,
            "relative_velocity": {
                "kilometers_per_second": "15.5603562265",
                "kilometers_per_hour": "56017.282415535",
                "miles_per_hour": "34806.9608431417"
            },
            "miss_distance": {
                "astronomical": "0.0604509218",
                "lunar": "23.5154085802",
                "kilometers": "9043329.140816566",
                "miles": "5619264.1593619708"
            },
            "orbiting_body": "Earth"
        }
    ],
    "orbital_data": {
        "orbit_id": "6",
        "orbit_determination_date": "2017-04-06 08:22:31",
        "first_observation_date": "2016-10-25",
        "last_observation_date": "2016-11-11",
        "data_arc_in_days": 17,
        "observations_used": 54,
        "orbit_uncertainty": "8",
        "minimum_orbit_intersection": ".0011288",
        "jupiter_tisserand_invariant": "3.140",
        "epoch_osculation": "2457690.5",
        "eccentricity": ".6575927055969254",
        "semi_major_axis": "2.475856574767386",
        "inclination": "2.656016092259335",
        "ascending_node_longitude": "229.7574462543625",
        "orbital_period": "1422.940205929687",
        "perihelion_distance": ".8477513510961642",
        "perihelion_argument": "229.0285068935618",
        "aphelion_distance": "4.103961798438608",
        "perihelion_time": "2457738.024410096531",
        "mean_anomaly": "347.9764535688462",
        "mean_motion": ".2529972788032872",
        "equinox": "J2000",
        "orbit_class": {
            "orbit_class_type": "APO",
            "orbit_class_description": "Near-Earth asteroid orbits which cross the Earth’s orbit similar to that of 1862 Apollo",
            "orbit_class_range": "a (semi-major axis) > 1.0 AU; q (perihelion) < 1.017 AU"
        }
    },
    "is_sentry_object": false
}